STARLINK-31545          
1 59400U 24064C   25017.99757589  .00001308  00000+0  38581-4 0  9998
2 59400  43.0048 246.1572 0001950 277.8991  82.1644 15.40704624 45629
STARLINK-31507          
1 59401U 24064D   25018.05344247  .00001242  00000+0  36988-4 0  9996
2 59401  43.0029 245.7144 0001704 279.5814  80.4850 15.40706799 45578
STARLINK-31543          
1 59402U 24064E   25017.88360195  .00000758  00000+0  25394-4 0  9997
2 59402  42.9996 247.0211 0001460 260.9952  99.0739 15.40704970 45601
STARLINK-31366          
1 59403U 24064F   25017.80533591 -.00000236  00000+0  16244-5 0  9999
2 59403  43.0042 247.2932 0002168 271.0655  88.9953 15.40695532 45593
STARLINK-31374          
1 59404U 24064G   25017.62886121  .00093355  00000+0  11722-2 0  9996
2 59404  42.9960 226.6035 0007394 266.8803  93.1214 15.58665158 45564
STARLINK-31400          
1 59405U 24064H   25018.03118225  .00000874  00000+0  28190-4 0  9999
2 59405  43.0012 246.4129 0001597 265.8658  94.2016 15.40698908 45624
STARLINK-31391          
1 59406U 24064J   25018.35081284  .00004110  00000+0  10550-3 0  9996
2 59406  43.0022 244.5051 0001892 243.0945 116.9718 15.40730514 45670
STARLINK-31387          
1 59407U 24064K   25017.95291589  .00000063  00000+0  87808-5 0  9998
2 59407  42.9997 246.6829 0001709 277.8529  82.2134 15.40701913 45618
STARLINK-31367          
1 59408U 24064L   25018.25001157  .00083810  00000+0  95922-3 0  9998
2 59408  42.9963 233.1865 0015690 266.8043  93.6815 15.61015813 45786
STARLINK-31396          
1 59409U 24064M   25017.32912979 -.00000055  00000+0  59643-5 0  9992
2 59409  43.0049 249.7332 0001738 270.8892  89.1765 15.40703734 45463
STARLINK-31412          
1 59410U 24064N   25017.67119628  .00000448  00000+0  18010-4 0  9999
2 59410  43.0030 248.0055 0002424 277.4297  82.6284 15.40698330 45575
STARLINK-31483          
1 59411U 24064P   25018.01101777  .00001274  00000+0  37742-4 0  9996
2 59411  43.0012 246.2551 0001320 266.7164  93.3541 15.40707600 45627
STARLINK-31568          
1 59412U 24064Q   25018.33291417 -.00000660  00000+0 -85319-5 0  9997
2 59412  43.0010 244.3679 0001775 258.0943 101.9714 15.40717436 45670
STARLINK-31615          
1 59413U 24064R   25018.33054478  .00001517  00000+0  43561-4 0  9994
2 59413  43.0011 243.4692 0001458 262.2695  97.7996 15.40703334 45683
STARLINK-31457          
1 59414U 24064S   25017.87212891  .00000358  00000+0  15834-4 0  9992
2 59414  42.9997 245.1795 0001779 282.1311  77.9346 15.40698649 45625
STARLINK-31398          
1 59415U 24064T   25017.92603119  .00000076  00000+0  90896-5 0  9995
2 59415  43.0028 246.4743 0002058 274.7322  85.3299 15.40701005 45610
STARLINK-31399          
1 59416U 24064U   25018.31051608  .00001268  00000+0  37619-4 0  9997
2 59416  43.0080 244.1936 0001397 287.2280  72.8423 15.40706842 45675
STARLINK-31401          
1 59417U 24064V   25017.90362823  .00001021  00000+0  31710-4 0  9999
2 59417  43.0024 246.3026 0001525 260.3688  99.6996 15.40699681 45365
STARLINK-31414          
1 59418U 24064W   25017.63100919 -.00000070  00000+0  55918-5 0  9997
2 59418  43.0019 248.5666 0001558 271.6559  88.4119 15.40699424 45562
STARLINK-31415          
1 59419U 24064X   25017.96411327  .00002624  00000+0  70056-4 0  9997
2 59419  42.9997 246.7676 0001509 270.5517  89.5167 15.40702733 45614
STARLINK-31466          
1 59420U 24064Y   25018.02445881  .00000643  00000+0  22646-4 0  9990
2 59420  43.0009 246.3576 0001539 271.0212  89.0468 15.40701043 45621
STARLINK-11087 [DTC]    
1 59421U 24065A   25017.92822389  .00000860  00000+0  92554-5 0  9999
2 59421  53.1577 346.3281 0001086  89.3455 270.7690 15.76717973 46179
STARLINK-11090 [DTC]    
1 59422U 24065B   25018.09884546  .00014040  00000+0  89612-4 0  9997
2 59422  53.1577 345.2556 0001799  66.2870 293.8340 15.76736312 46210
STARLINK-11093 [DTC]    
1 59423U 24065C   25018.10859035 -.00006210  00000+0 -33962-4 0  9994
2 59423  53.1574 345.3201 0001111 108.9074 251.2067 15.76734234 46208
STARLINK-11083 [DTC]    
1 59424U 24065D   25018.11349662 -.00001073  00000+0 -25518-5 0  9997
2 59424  53.1591 345.3497 0001604  97.0386 263.0818 15.76728812 46150
STARLINK-11085 [DTC]    
1 59425U 24065E   25018.09396344  .00000505  00000+0  70883-5 0  9996
2 59425  53.1586 345.2222 0001499  89.2471 270.8722 15.76721845 46159
STARLINK-11089 [DTC]    
1 59426U 24065F   25018.32309127 -.00002519  00000+0 -11399-4 0  9991
2 59426  53.1577 343.8172 0001188  99.6677 260.4478 15.76724479 46256
STARLINK-31757          
1 59427U 24065G   25018.11557461  .00000120  00000+0  16161-4 0  9991
2 59427  53.1605  51.9547 0000372 101.8734 258.2308 15.30188225 45299
STARLINK-31773          
1 59429U 24065J   25017.37864329 -.00000431  00000+0 -24283-5 0  9996
2 59429  53.1591  57.3021 0001118  78.2266 281.8860 15.30189737 45168
STARLINK-31772          
1 59430U 24065K   25018.36100181  .00002762  00000+0  10539-3 0  9991
2 59430  53.1607  50.6270 0001287  72.0510 288.0631 15.30180479 45339
STARLINK-31613          
1 59431U 24065L   25018.25001157 -.00052233  00000+0 -17621-2 0  9991
2 59431  53.1582  51.2846 0001315  89.8583 308.6811 15.30230038 45310
STARLINK-31780          
1 59432U 24065M   25018.38105156 -.00000136  00000+0  75343-5 0  9992
2 59432  53.1604  50.7527 0001123  91.2864 268.8266 15.30193554 45336
STARLINK-31740          
1 59433U 24065N   25018.48688487  .00001033  00000+0  47008-4 0  9999
2 59433  53.1617  52.1304 0001501  97.5730 262.5441 15.30189287 45324
STARLINK-31580          
1 59434U 24065P   25018.36476179 -.00008150  00000+0 -26397-3 0  9996
2 59434  53.1607  52.7869 0001482 115.1133 245.0022 15.30124445 45302
STARLINK-31696          
1 59435U 24065Q   25018.37050706 -.00000110  00000+0  84070-5 0  9993
2 59435  53.1611  50.6904 0001518 106.1185 253.9983 15.30182043 45337
STARLINK-31700          
1 59436U 24065R   25018.36416801  .00002580  00000+0  99241-4 0  9992
2 59436  53.1610  50.6468 0001576  65.3007 294.8158 15.30192753 45332
STARLINK-31706          
1 59437U 24065S   25018.35731114 -.00000389  00000+0 -98192-6 0  9992
2 59437  53.1622  52.7389 0001806 109.9714 250.1481 15.30189861 45315
STARLINK-31711          
1 59438U 24065T   25018.36733033 -.00000683  00000+0 -10941-4 0  9997
2 59438  53.1607  50.6676 0001192  85.0515 275.0622 15.30199902 45338
STARLINK-31708          
1 59439U 24065U   25018.09657205  .00000593  00000+0  32138-4 0  9994
2 59439  53.1611  51.8185 0001196  86.8657 273.2481 15.30196040 45290
STARLINK-31693          
1 59441U 24065W   25018.38316297  .00000416  00000+0  26161-4 0  9995
2 59441  53.1618  50.7649 0001142  97.3733 262.7398 15.30189741 45342
STARLINK-31617          
1 59455U 24068A   25017.85193061  .00015083  00000+0  36685-3 0  9993
2 59455  43.0009 225.7321 0001683 269.0046  91.0618 15.40763038 44890
STARLINK-31622          
1 59456U 24068B   25017.96808157 -.00021777  00000+0 -51601-3 0  9999
2 59456  43.0015 224.8800 0001740 257.1430 102.9232 15.40671191 44914
STARLINK-31319          
1 59457U 24068C   25017.93248550 -.00000548  00000+0 -58652-5 0  9990
2 59457  43.0011 225.4766 0001306 275.4504  84.6204 15.40703371 44902
STARLINK-31625          
1 59458U 24068D   25017.95922516  .00000624  00000+0  22205-4 0  9991
2 59458  43.0010 224.8115 0001506 259.8250 100.2436 15.40704262 44923
STARLINK-31631          
1 59459U 24068E   25017.94368332 -.00002173  00000+0 -44777-4 0  9992
2 59459  42.9990 225.5656 0001545 275.8815  84.1865 15.40691274 44907
STARLINK-31620          
1 59460U 24068F   25017.92576927  .00000650  00000+0  22839-4 0  9994
2 59460  43.0031 225.4254 0001448 278.3679  81.7013 15.40689331 44907
STARLINK-31511          
1 59462U 24068H   25017.84525575  .00000130  00000+0  10383-4 0  9994
2 59462  43.0004 225.6781 0001096 255.3394 104.7341 15.40699179 44893
STARLINK-31364          
1 59463U 24068J   25018.00179619  .00005466  00000+0  13808-3 0  9999
2 59463  43.0022 225.1371 0001358 280.8446  79.2257 15.40684316 44918
STARLINK-31597          
1 59464U 24068K   25018.27889448 -.00001504  00000+0 -28745-4 0  9995
2 59464  43.0024 222.9067 0000864 260.5499  99.5260 15.40704352 44903
STARLINK-31621          
1 59465U 24068L   25017.96146828  .00000878  00000+0  28285-4 0  9999
2 59465  43.0004 224.8391 0001712 261.4692  98.5970 15.40700149 44908
STARLINK-31462          
1 59466U 24068M   25017.88544190 -.00000136  00000+0  40063-5 0  9992
2 59466  43.0006 225.1018 0001286 277.8470  82.2241 15.40695079 44908
STARLINK-31592          
1 59467U 24068N   25017.84302575 -.00001918  00000+0 -38681-4 0  9990
2 59467  43.0001 225.6605 0001399 264.7514  95.3183 15.40678449 44890
STARLINK-31267          
1 59468U 24068P   25017.98835192  .00001434  00000+0  41596-4 0  9992
2 59468  43.0018 225.0338 0001484 278.8482  81.2207 15.40693143 44913
STARLINK-31381          
1 59469U 24068Q   25017.92128163  .00002086  00000+0  57195-4 0  9996
2 59469  43.0013 225.3906 0001395 273.8820  86.1877 15.40695051 44901
STARLINK-31546          
1 59470U 24068R   25017.61058291 -.00000157  00000+0  35256-5 0  9991
2 59470  43.0024 227.3649 0002302 295.3484  64.7134 15.40698542 44855
STARLINK-31575          
1 59471U 24068S   25017.92800017  .00001397  00000+0  40695-4 0  9995
2 59471  43.0009 225.4378 0001545 276.2152  83.8528 15.40705245 44909
STARLINK-31610          
1 59473U 24068U   25018.28116729 -.00003709  00000+0 -81659-4 0  9993
2 59473  43.0019 222.9232 0001198 278.6040  81.4681 15.40666487 44963
STARLINK-31581          
1 59474U 24068V   25018.25001157 -.00080647  00000+0 -18338-2 0  9997
2 59474  42.9991 223.2835 0002534 264.2933 208.2407 15.42436747 44951
STARLINK-31566          
1 59475U 24068W   25017.55681587  .00000645  00000+0  22714-4 0  9994
2 59475  43.0023 226.9439 0001619 255.2776 104.7901 15.40696440 44852
